[{"OBJECT_NAME":"STARLINK-34757","OBJECT_ID":"2025-152J","EPOCH":"2026-03-09T14:29:44.288448","MEAN_MOTION":15.05654812,"ECCENTRICITY":0.0002943,"INCLINATION":97.6022,"RA_OF_ASC_NODE":285.4077,"ARG_OF_PERICENTER":71.7281,"MEAN_ANOMALY":288.4266,"EPHEMERIS_TYPE":0,"CLASSIFICATION_TYPE":"U","NORAD_CAT_ID":64850,"ELEMENT_SET_NO":999,"REV_AT_EPOCH":3540,"BSTAR":0.00050251,"MEAN_MOTION_DOT":7.199e-5,"MEAN_MOTION_DDOT":0},{"OBJECT_NAME":"CZ-2C DEB","OBJECT_ID":"2013-035C","EPOCH":"2026-03-09T23:28:11.376480","MEAN_MOTION":14.97090669,"ECCENTRICITY":0.00414021,"INCLINATION":98.2221,"RA_OF_ASC_NODE":340.898,"ARG_OF_PERICENTER":245.2603,"MEAN_ANOMALY":114.4306,"EPHEMERIS_TYPE":0,"CLASSIFICATION_TYPE":"U","NORAD_CAT_ID":39204,"ELEMENT_SET_NO":999,"REV_AT_EPOCH":67473,"BSTAR":0.0018072367,"MEAN_MOTION_DOT":0.00021197,"MEAN_MOTION_DDOT":0}]
